[{"OBJECT_NAME":"STARLINK-30993","OBJECT_ID":"2023-186S","EPOCH":"2026-03-09T00:33:51.495552","MEAN_MOTION":15.27561669,"ECCENTRICITY":0.00018117,"INCLINATION":43.0032,"RA_OF_ASC_NODE":67.4606,"ARG_OF_PERICENTER":277.2444,"MEAN_ANOMALY":82.8202,"EPHEMERIS_TYPE":0,"CLASSIFICATION_TYPE":"U","NORAD_CAT_ID":58489,"ELEMENT_SET_NO":999,"REV_AT_EPOCH":12578,"BSTAR":0.0002212858,"MEAN_MOTION_DOT":5.829e-5,"MEAN_MOTION_DDOT":0},{"OBJECT_NAME":"OBJECT A","OBJECT_ID":"2025-013A","EPOCH":"2026-03-09T23:29:31.895232","MEAN_MOTION":15.29260221,"ECCENTRICITY":0.0010321,"INCLINATION":97.6364,"RA_OF_ASC_NODE":244.5149,"ARG_OF_PERICENTER":282.3775,"MEAN_ANOMALY":77.6309,"EPHEMERIS_TYPE":0,"CLASSIFICATION_TYPE":"U","NORAD_CAT_ID":62729,"ELEMENT_SET_NO":999,"REV_AT_EPOCH":6276,"BSTAR":0.0013206527,"MEAN_MOTION_DOT":0.00037616,"MEAN_MOTION_DDOT":0}]
